LEMUR-2-AMANDA-SVANTE   
1 48269U 21034B   26068.77637527  .00030872  00000+0  11134-2 0  9996
2 48269  97.5829 144.8625 0002703 205.4721 154.6385 15.28469003265849
STARLINK-33664          
1 63415U 25065S   26068.45136288  .00030196  00000+0  11017-2 0  9996
2 63415  42.9974 108.3630 0001023 280.1190  79.9546 15.27599527 52801
